CCSDS_OMM_VERS = 2.0
CREATION_DATE  = 
ORIGINATOR     = 

OBJECT_NAME    = UNKNOWN
OBJECT_ID      = 
CENTER_NAME    = EARTH
REF_FRAME      = TEME
TIME_SYSTEM    = UTC
MEAN_ELEMENT_THEORY = SGP/SGP4

EPOCH          = 2026-03-17T10:15:07.131168
MEAN_MOTION    = 13.75282620
ECCENTRICITY   = .0026889
INCLINATION    = 99.2461
RA_OF_ASC_NODE = 300.4448
ARG_OF_PERICENTER = 5.2422
MEAN_ANOMALY   = 118.1978

EPHEMERIS_TYPE = 0
CLASSIFICATION_TYPE = U
NORAD_CAT_ID   = 85010
ELEMENT_SET_NO = 999
REV_AT_EPOCH   = 61693
BSTAR          = .10655E-2
MEAN_MOTION_DOT = .982E-5
MEAN_MOTION_DDOT = 0

CCSDS_OMM_VERS = 2.0
CREATION_DATE  = 
ORIGINATOR     = 

OBJECT_NAME    = UNKNOWN
OBJECT_ID      = 
CENTER_NAME    = EARTH
REF_FRAME      = TEME
TIME_SYSTEM    = UTC
MEAN_ELEMENT_THEORY = SGP/SGP4

EPOCH          = 2026-03-27T13:51:10.393632
MEAN_MOTION    = 14.62438477
ECCENTRICITY   = .0013885
INCLINATION    = 74.0503
RA_OF_ASC_NODE = 197.5582
ARG_OF_PERICENTER = 75.5520
MEAN_ANOMALY   = 284.7187

EPHEMERIS_TYPE = 0
CLASSIFICATION_TYPE = U
NORAD_CAT_ID   = 85015
ELEMENT_SET_NO = 999
REV_AT_EPOCH   = 65793
BSTAR          = .10243E-3
MEAN_MOTION_DOT = .489E-5
MEAN_MOTION_DDOT = 0

CCSDS_OMM_VERS = 2.0
CREATION_DATE  = 
ORIGINATOR     = 

OBJECT_NAME    = UNKNOWN
OBJECT_ID      = 
CENTER_NAME    = EARTH
REF_FRAME      = TEME
TIME_SYSTEM    = UTC
MEAN_ELEMENT_THEORY = SGP/SGP4

EPOCH          = 2026-03-30T14:36:23.929920
MEAN_MOTION    = 14.81433718
ECCENTRICITY   = .0000946
INCLINATION    = 99.8386
RA_OF_ASC_NODE = 133.8463
ARG_OF_PERICENTER = 161.6150
MEAN_ANOMALY   = 349.7192

EPHEMERIS_TYPE = 0
CLASSIFICATION_TYPE = U
NORAD_CAT_ID   = 85023
ELEMENT_SET_NO = 999
REV_AT_EPOCH   = 64476
BSTAR          = .49414E-2
MEAN_MOTION_DOT = .38828E-3
MEAN_MOTION_DDOT = 0

CCSDS_OMM_VERS = 2.0
CREATION_DATE  = 
ORIGINATOR     = 

OBJECT_NAME    = UNKNOWN
OBJECT_ID      = 
CENTER_NAME    = EARTH
REF_FRAME      = TEME
TIME_SYSTEM    = UTC
MEAN_ELEMENT_THEORY = SGP/SGP4

EPOCH          = 2026-03-29T23:51:39.168576
MEAN_MOTION    = 13.74295217
ECCENTRICITY   = .0168767
INCLINATION    = 66.0415
RA_OF_ASC_NODE = 198.8603
ARG_OF_PERICENTER = 132.7554
MEAN_ANOMALY   = 228.7853

EPHEMERIS_TYPE = 0
CLASSIFICATION_TYPE = U
NORAD_CAT_ID   = 85027
ELEMENT_SET_NO = 999
REV_AT_EPOCH   = 61935
BSTAR          = .22033E-3
MEAN_MOTION_DOT = .152E-5
MEAN_MOTION_DDOT = 0

CCSDS_OMM_VERS = 2.0
CREATION_DATE  = 
ORIGINATOR     = 

OBJECT_NAME    = UNKNOWN
OBJECT_ID      = 
CENTER_NAME    = EARTH
REF_FRAME      = TEME
TIME_SYSTEM    = UTC
MEAN_ELEMENT_THEORY = SGP/SGP4

EPOCH          = 2026-03-30T10:22:25.929120
MEAN_MOTION    = 13.47169570
ECCENTRICITY   = .0123349
INCLINATION    = 102.1660
RA_OF_ASC_NODE = 82.5138
ARG_OF_PERICENTER = 131.3085
MEAN_ANOMALY   = 229.8733

EPHEMERIS_TYPE = 0
CLASSIFICATION_TYPE = U
NORAD_CAT_ID   = 85047
ELEMENT_SET_NO = 999
REV_AT_EPOCH   = 59114
BSTAR          = .21822E-1
MEAN_MOTION_DOT = .13874E-3
MEAN_MOTION_DDOT = 0

CCSDS_OMM_VERS = 2.0
CREATION_DATE  = 
ORIGINATOR     = 

OBJECT_NAME    = UNKNOWN
OBJECT_ID      = 
CENTER_NAME    = EARTH
REF_FRAME      = TEME
TIME_SYSTEM    = UTC
MEAN_ELEMENT_THEORY = SGP/SGP4

EPOCH          = 2026-03-28T11:37:00.056352
MEAN_MOTION    = 12.77828797
ECCENTRICITY   = .0266877
INCLINATION    = 102.4053
RA_OF_ASC_NODE = 86.0238
ARG_OF_PERICENTER = 344.9615
MEAN_ANOMALY   = 169.6602

EPHEMERIS_TYPE = 0
CLASSIFICATION_TYPE = U
NORAD_CAT_ID   = 85061
ELEMENT_SET_NO = 999
REV_AT_EPOCH   = 56928
BSTAR          = .14429E-1
MEAN_MOTION_DOT = .3645E-4
MEAN_MOTION_DDOT = 0

CCSDS_OMM_VERS = 2.0
CREATION_DATE  = 
ORIGINATOR     = 

OBJECT_NAME    = UNKNOWN
OBJECT_ID      = 
CENTER_NAME    = EARTH
REF_FRAME      = TEME
TIME_SYSTEM    = UTC
MEAN_ELEMENT_THEORY = SGP/SGP4

EPOCH          = 2026-03-27T14:13:56.355168
MEAN_MOTION    = 14.40809886
ECCENTRICITY   = .0013594
INCLINATION    = 74.0475
RA_OF_ASC_NODE = 28.9206
ARG_OF_PERICENTER = 233.9710
MEAN_ANOMALY   = 305.6757

EPHEMERIS_TYPE = 0
CLASSIFICATION_TYPE = U
NORAD_CAT_ID   = 85100
ELEMENT_SET_NO = 999
REV_AT_EPOCH   = 64844
BSTAR          = .11068E-3
MEAN_MOTION_DOT = .328E-5
MEAN_MOTION_DDOT = 0

CCSDS_OMM_VERS = 2.0
CREATION_DATE  = 
ORIGINATOR     = 

OBJECT_NAME    = UNKNOWN
OBJECT_ID      = 
CENTER_NAME    = EARTH
REF_FRAME      = TEME
TIME_SYSTEM    = UTC
MEAN_ELEMENT_THEORY = SGP/SGP4

EPOCH          = 2026-03-28T13:49:47.136000
MEAN_MOTION    = 13.73057649
ECCENTRICITY   = .0010643
INCLINATION    = 100.0548
RA_OF_ASC_NODE = 198.6429
ARG_OF_PERICENTER = 105.7026
MEAN_ANOMALY   = 271.6882

EPHEMERIS_TYPE = 0
CLASSIFICATION_TYPE = U
NORAD_CAT_ID   = 85106
ELEMENT_SET_NO = 999
REV_AT_EPOCH   = 61759
BSTAR          = .71988E-3
MEAN_MOTION_DOT = .617E-5
MEAN_MOTION_DDOT = 0

CCSDS_OMM_VERS = 2.0
CREATION_DATE  = 
ORIGINATOR     = 

OBJECT_NAME    = UNKNOWN
OBJECT_ID      = 
CENTER_NAME    = EARTH
REF_FRAME      = TEME
TIME_SYSTEM    = UTC
MEAN_ELEMENT_THEORY = SGP/SGP4

EPOCH          = 2026-03-29T02:10:07.924800
MEAN_MOTION    = 14.84004837
ECCENTRICITY   = .0007484
INCLINATION    = 98.3983
RA_OF_ASC_NODE = 322.2405
ARG_OF_PERICENTER = 148.5148
MEAN_ANOMALY   = 211.6514

EPHEMERIS_TYPE = 0
CLASSIFICATION_TYPE = U
NORAD_CAT_ID   = 85151
ELEMENT_SET_NO = 999
REV_AT_EPOCH   = 49527
BSTAR          = .27046E-2
MEAN_MOTION_DOT = .22537E-3
MEAN_MOTION_DDOT = 0

CCSDS_OMM_VERS = 2.0
CREATION_DATE  = 
ORIGINATOR     = 

OBJECT_NAME    = UNKNOWN
OBJECT_ID      = 
CENTER_NAME    = EARTH
REF_FRAME      = TEME
TIME_SYSTEM    = UTC
MEAN_ELEMENT_THEORY = SGP/SGP4

EPOCH          = 2026-03-30T15:58:47.286048
MEAN_MOTION    = 13.71686105
ECCENTRICITY   = .0215337
INCLINATION    = 99.8647
RA_OF_ASC_NODE = 238.6418
ARG_OF_PERICENTER = 38.4279
MEAN_ANOMALY   = 340.3417

EPHEMERIS_TYPE = 0
CLASSIFICATION_TYPE = U
NORAD_CAT_ID   = 85210
ELEMENT_SET_NO = 999
REV_AT_EPOCH   = 61695
BSTAR          = .40182E-3
MEAN_MOTION_DOT = .381E-5
MEAN_MOTION_DDOT = 0

CCSDS_OMM_VERS = 2.0
CREATION_DATE  = 
ORIGINATOR     = 

OBJECT_NAME    = UNKNOWN
OBJECT_ID      = 
CENTER_NAME    = EARTH
REF_FRAME      = TEME
TIME_SYSTEM    = UTC
MEAN_ELEMENT_THEORY = SGP/SGP4

EPOCH          = 2026-03-30T11:24:51.022656
MEAN_MOTION    = 14.37794213
ECCENTRICITY   = .0207485
INCLINATION    = 98.0220
RA_OF_ASC_NODE = 181.8327
ARG_OF_PERICENTER = 162.3698
MEAN_ANOMALY   = 198.4834

EPHEMERIS_TYPE = 0
CLASSIFICATION_TYPE = U
NORAD_CAT_ID   = 85217
ELEMENT_SET_NO = 999
REV_AT_EPOCH   = 64333
BSTAR          = .13044E-2
MEAN_MOTION_DOT = .5E-4
MEAN_MOTION_DDOT = 0

CCSDS_OMM_VERS = 2.0
CREATION_DATE  = 
ORIGINATOR     = 

OBJECT_NAME    = UNKNOWN
OBJECT_ID      = 
CENTER_NAME    = EARTH
REF_FRAME      = TEME
TIME_SYSTEM    = UTC
MEAN_ELEMENT_THEORY = SGP/SGP4

EPOCH          = 2026-03-25T14:18:05.166432
MEAN_MOTION    = 14.02416885
ECCENTRICITY   = .0516473
INCLINATION    = 65.5328
RA_OF_ASC_NODE = 304.6752
ARG_OF_PERICENTER = 340.8747
MEAN_ANOMALY   = 17.3543

EPHEMERIS_TYPE = 0
CLASSIFICATION_TYPE = U
NORAD_CAT_ID   = 85237
ELEMENT_SET_NO = 999
REV_AT_EPOCH   = 62276
BSTAR          = .69292E-3
MEAN_MOTION_DOT = .342E-4
MEAN_MOTION_DDOT = 0

